*******************************************************************************
JPL/HORIZONS                 71 Niobe (A861 PA)            2020-Jun-20 08:04:33
Rec #:      71 (+COV) Soln.date: 2020-May-20_00:57:44   # obs: 2526 (1864-2020)
 
IAU76/J2000 helio. ecliptic osc. elements (au, days, deg., period=Julian yrs):
 
  EPOCH=  2454845.5 ! 2009-Jan-14.00 (TDB)         Residual RMS= .33035
   EC= .1761601631144254   QR= 2.268862374546692   TP= 2454035.1654041922
   OM= 316.0760025997961   W=  267.2574442109426   IN= 23.26427164873076
   A= 2.754009059726764    MA= 174.7512969938044   ADIST= 3.239155744906836
   PER= 4.57042            N= .215653254           ANGMOM= .028100804
   DAN= 2.69123            DDN= 2.64624            L= 223.091154
   B= -23.2360603          MOID= 1.40067005        TP= 2006-Oct-26.6654041922
 
Asteroid physical parameters (km, seconds, rotational period in hours):
   GM= n.a.                RAD= 41.71              ROTPER= 35.864
   H= 7.1                  G= .400                 B-V= .803
                           ALBEDO= .3052           STYP= Xe
 
ASTEROID comments: 
1: soln ref.= JPL#83, OCC=0
2: source=ORB
*******************************************************************************
 
 
*******************************************************************************
Ephemeris / WWW_USER Sat Jun 20 08:04:33 2020 Pasadena, USA      / Horizons
*******************************************************************************
Target body name: 71 Niobe (A861 PA)              {source: JPL#83}
Center body name: Solar System Barycenter (0)     {source: DE431}
Center-site name: BODY CENTER
*******************************************************************************
Start time      : A.D. 1969-Jun-28 00:00:00.0000 TDB
Stop  time      : A.D. 2071-May-04 00:00:00.0000 TDB
Step-size       : 7200 minutes
*******************************************************************************
Center geodetic : 0.00000000,0.00000000,0.0000000 {E-lon(deg),Lat(deg),Alt(km)}
Center cylindric: 0.00000000,0.00000000,0.0000000 {E-lon(deg),Dxy(km),Dz(km)}
Center radii    : (undefined)                                                  
Small perturbers: Yes                             {source: SB431-N16}
Output units    : AU-D
Output type     : GEOMETRIC cartesian states
Output format   : 2 (position and velocity)
Reference frame : Ecliptic of J2000.0
*******************************************************************************
Initial IAU76/J2000 heliocentric ecliptic osculating elements (au, days, deg.):
  EPOCH=  2454845.5 ! 2009-Jan-14.00 (TDB)         Residual RMS= .33035        
   EC= .1761601631144254   QR= 2.268862374546692   TP= 2454035.1654041922      
   OM= 316.0760025997961   W=  267.2574442109426   IN= 23.26427164873076       
  Equivalent ICRF heliocentric equatorial cartesian coordinates (au, au/d):
   X= 2.313321103700273E+00  Y= 1.215100175916605E+00  Z= 1.911721226256885E+00
  VX=-5.500963674956897E-03 VY= 5.974781742123571E-03 VZ= 3.063670156842379E-03
Asteroid physical parameters (km, seconds, rotational period in hours):        
   GM= n.a.                RAD= 41.71              ROTPER= 35.864              
   H= 7.1                  G= .400                 B-V= .803                   
                           ALBEDO= .3052           STYP= Xe                    
*******************************************************************************
            JDTDB,            Calendar Date (TDB),        delta-T,                      X,                      Y,                      Z,                     VX,                     VY,                     VZ,
******************************************************************************************************************************************************************************************************************
$$SOE
2458320.500000000, A.D. 2018-Jul-21 00:00:00.0000,      69.183545,  1.423655882325355E+00,  2.602843523817702E+00,  1.227554181345925E+00, -7.732926676935235E-03,  4.070819839224105E-03, -1.048113689050602E-03,
2458325.500000000, A.D. 2018-Jul-26 00:00:00.0000,      69.183410,  1.384832613824362E+00,  2.622904869280415E+00,  1.222175734955939E+00, -7.796116855345304E-03,  3.953517656781596E-03, -1.103248166505783E-03,
2458330.500000000, A.D. 2018-Jul-31 00:00:00.0000,      69.183278,  1.345697365537701E+00,  2.642376699869561E+00,  1.216521872566142E+00, -7.857715963257468E-03,  3.835015166439973E-03, -1.158278908992038E-03,
2458335.500000000, A.D. 2018-Aug-05 00:00:00.0000,      69.183151,  1.306258132514157E+00,  2.661253033240231E+00,  1.210593130647655E+00, -7.917708066508846E-03,  3.715320055433938E-03, -1.213198778500573E-03,
2458340.500000000, A.D. 2018-Aug-10 00:00:00.0000,      69.183033,  1.266522990313471E+00,  2.679527925635062E+00,  1.204390081658949E+00, -7.976076893788538E-03,  3.594440073633821E-03, -1.268000517131251E-03,
2458345.500000000, A.D. 2018-Aug-15 00:00:00.0000,      69.182922,  1.226500096708392E+00,  2.697195472229011E+00,  1.197913334659897E+00, -8.032805830126791E-03,  3.472383046243969E-03, -1.322676741239757E-03,
2458350.500000000, A.D. 2018-Aug-20 00:00:00.0000,      69.182817,  1.186197693419021E+00,  2.714249807538560E+00,  1.191163535955340E+00, -8.087877910495554E-03,  3.349156886885537E-03, -1.377219935482153E-03,
2458355.500000000, A.D. 2018-Aug-25 00:00:00.0000,      69.182719,  1.145624107878890E+00,  2.730685105897419E+00,  1.184141369768750E+00, -8.141275813506302E-03,  3.224769611122911E-03, -1.431622446717958E-03,
2458360.500000000, A.D. 2018-Aug-30 00:00:00.0000,      69.182630,  1.104787755032473E+00,  2.746495582001077E+00,  1.176847558946834E+00, -8.192981855111740E-03,  3.099229350479751E-03, -1.485876477733719E-03,
2458365.500000000, A.D. 2018-Sep-04 00:00:00.0000,      69.182552,  1.063697139164400E+00,  2.761675491522484E+00,  1.169282865695829E+00, -8.242977982227983E-03,  2.972544366823154E-03, -1.539974080878171E-03,
2458370.500000000, A.D. 2018-Sep-09 00:00:00.0000,      69.182485,  1.022360855760499E+00,  2.776219131799834E+00,  1.161448092349247E+00, -8.291245766458526E-03,  2.844723066793578E-03, -1.593907151883539E-03,
2458375.500000000, A.D. 2018-Sep-14 00:00:00.0000,      69.182430,  9.807875933988205E-01,  2.790120842596958E+00,  1.153344082166155E+00, -8.337766398408525E-03,  2.715774016518179E-03, -1.647667423752899E-03,
2458380.500000000, A.D. 2018-Sep-19 00:00:00.0000,      69.182385,  9.389861356680356E-01,  2.803375006939270E+00,  1.144971720160867E+00, -8.382520682323473E-03,  2.585705957173408E-03, -1.701246460263309E-03,
2458385.500000000, A.D. 2018-Sep-24 00:00:00.0000,      69.182351,  8.969653631129336E-01,  2.815976052029608E+00,  1.136331933966114E+00, -8.425489030581637E-03,  2.454527821313028E-03, -1.754635649119787E-03,
2458390.500000000, A.D. 2018-Sep-29 00:00:00.0000,      69.182328,  8.547342552076390E-01,  2.827918450246793E+00,  1.127425694730640E+00, -8.466651458163088E-03,  2.322248749592891E-03, -1.807826195065202E-03,
2458395.500000000, A.D. 2018-Oct-04 00:00:00.0000,      69.182318,  8.123018923559895E-01,  2.839196720228730E+00,  1.118254018051240E+00, -8.505987577340151E-03,  2.188878107880740E-03, -1.860809112982707E-03,
2458400.500000000, A.D. 2018-Oct-09 00:00:00.0000,      69.182322,  7.696774579177761E-01,  2.849805428042272E+00,  1.108817964939462E+00, -8.543476592642417E-03,  2.054425504869966E-03, -1.913575220913229E-03,
2458405.500000000, A.D. 2018-Oct-14 00:00:00.0000,      69.182339,  7.268702402595001E-01,  2.859739188442580E+00,  1.099118642823547E+00, -8.579097296081322E-03,  1.918900810274386E-03, -1.966115132940111E-03,
2458410.500000000, A.D. 2018-Oct-19 00:00:00.0000,      69.182367,  6.838896348283836E-01,  2.868992666225004E+00,  1.089157206586322E+00, -8.612828062622558E-03,  1.782314173645107E-03, -2.018419251922381E-03,
2458415.500000000, A.D. 2018-Oct-24 00:00:00.0000,      69.182406,  6.407451462484096E-01,  2.877560577672655E+00,  1.078934859639812E+00, -8.644646845902824E-03,  1.644676043835240E-03, -2.070477762070921E-03,
2458420.500000000, A.D. 2018-Oct-29 00:00:00.0000,      69.182456,  5.974463904371675E-01,  2.885437692102974E+00,  1.068452855037368E+00, -8.674531174189055E-03,  1.505997189134576E-03, -2.122280621367956E-03,
2458425.500000000, A.D. 2018-Nov-03 00:00:00.0000,      69.182519,  5.540030967423075E-01,  2.892618833516658E+00,  1.057712496624074E+00, -8.702458146576178E-03,  1.366288718085673E-03, -2.173817553837745E-03,
2458430.500000000, A.D. 2018-Nov-08 00:00:00.0000,      69.182595,  5.104251100964113E-01,  2.899098882352393E+00,  1.046715140226125E+00, -8.728404429422885E-03,  1.225562100972481E-03, -2.225078041698698E-03,
2458435.500000000, A.D. 2018-Nov-13 00:00:00.0000,      69.182682,  4.667223931890790E-01,  2.904872777350669E+00,  1.035462194879679E+00, -8.752346253031826E-03,  1.083829191985305E-03, -2.276051317414024E-03,
2458440.500000000, A.D. 2018-Nov-18 00:00:00.0000,      69.182777,  4.229050286549183E-01,  2.909935517530043E+00,  1.023955124099583E+00, -8.774259408618638E-03,  9.411022520129967E-04, -2.326726355712229E-03,
2458445.500000000, A.D. 2018-Nov-23 00:00:00.0000,      69.182881,  3.789832212758431E-01,  2.914282164279028E+00,  1.012195447188089E+00, -8.794119245630040E-03,  7.973939721210995E-04, -2.377091865563589E-03,
2458450.500000000, A.D. 2018-Nov-28 00:00:00.0000,      69.182993,  3.349673001958887E-01,  2.917907843567193E+00,  1.000184740583778E+00, -8.811900669404968E-03,  6.527174977664621E-04, -2.427136282120342E-03,
2458455.500000000, A.D. 2018-Dec-03 00:00:00.0000,      69.183114,  2.908677211470379E-01,  2.920807748279062E+00,  9.879246392507421E-01, -8.827578139101552E-03,  5.070864536418379E-04, -2.476847758711372E-03,
